{"type":"Feature","properties":{"comuna":"Rengo","cut":"06115","fuente":"OpenStreetMap contributors"},"geometry":{"type":"Polygon","coordinates":[[[-70.959,-34.3885],[-70.9588,-34.3896],[-70.9588,-34.3902],[-70.9587,-34.3909],[-70.9587,-34.3914],[-70.9585,-34.3946],[-70.957,-34.3967],[-70.9567,-34.397],[-70.9564,-34.3974],[-70.9561,-34.3978],[-70.9558,-34.3981],[-70.9558,-34.3982],[-70.9558,-34.3983],[-70.9558,-34.3985],[-70.9559,-34.3986],[-70.9559,-34.3987],[-70.9559,-34.3994],[-70.9542,-34.3986],[-70.9541,-34.3985],[-70.954,-34.3984],[-70.9539,-34.3984],[-70.9503,-34.3995],[-70.9501,-34.3996],[-70.95,-34.3996],[-70.9495,-34.3996],[-70.9494,-34.3996],[-70.9492,-34.3997],[-70.949,-34.3997],[-70.9488,-34.3997],[-70.9487,-34.3998],[-70.9486,-34.3998],[-70.9484,-34.3999],[-70.9483,-34.4],[-70.9482,-34.4001],[-70.9482,-34.4002],[-70.9482,-34.4005],[-70.9482,-34.4006],[-70.9483,-34.4008],[-70.9484,-34.4009],[-70.9484,-34.4011],[-70.9485,-34.4014],[-70.9485,-34.4015],[-70.9484,-34.4017],[-70.9484,-34.4018],[-70.9483,-34.4019],[-70.9482,-34.402],[-70.9481,-34.4021],[-70.9479,-34.4021],[-70.9476,-34.4022],[-70.9475,-34.4022],[-70.9474,-34.4023],[-70.9472,-34.4023],[-70.947,-34.4023],[-70.9468,-34.4023],[-70.9465,-34.4024],[-70.9463,-34.4024],[-70.9461,-34.4024],[-70.9457,-34.4024],[-70.9453,-34.4024],[-70.9451,-34.4023],[-70.945,-34.4023],[-70.9449,-34.4022],[-70.9448,-34.4022],[-70.9447,-34.402],[-70.9446,-34.4019],[-70.9443,-34.4016],[-70.9441,-34.4014],[-70.944,-34.4013],[-70.9438,-34.4012],[-70.9437,-34.4011],[-70.9436,-34.4011],[-70.9434,-34.401],[-70.9432,-34.4009],[-70.9431,-34.4009],[-70.9429,-34.4009],[-70.9426,-34.4009],[-70.9425,-34.4009],[-70.9423,-34.4011],[-70.9421,-34.4012],[-70.9419,-34.4013],[-70.9417,-34.4014],[-70.9415,-34.4014],[-70.9414,-34.4014],[-70.9412,-34.4015],[-70.9411,-34.4014],[-70.941,-34.4014],[-70.9407,-34.4014],[-70.9405,-34.4013],[-70.9401,-34.4012],[-70.9398,-34.4011],[-70.9395,-34.401],[-70.9392,-34.401],[-70.9388,-34.401],[-70.9386,-34.401],[-70.9384,-34.4011],[-70.9383,-34.4011],[-70.9383,-34.4012],[-70.938,-34.4014],[-70.9374,-34.4019],[-70.9374,-34.402],[-70.9373,-34.4021],[-70.9371,-34.4024],[-70.9369,-34.4025],[-70.9368,-34.4026],[-70.9365,-34.4029],[-70.9363,-34.4031],[-70.9362,-34.4032],[-70.9359,-34.4033],[-70.9358,-34.4034],[-70.9355,-34.4035],[-70.9353,-34.4036],[-70.9351,-34.4036],[-70.935,-34.4037],[-70.9348,-34.4037],[-70.9347,-34.4038],[-70.9345,-34.4038],[-70.9344,-34.4037],[-70.9343,-34.4037],[-70.9342,-34.4036],[-70.9342,-34.4035],[-70.9342,-34.4034],[-70.9342,-34.4032],[-70.934,-34.403],[-70.9339,-34.4028],[-70.9338,-34.4027],[-70.9337,-34.4026],[-70.9336,-34.4026],[-70.9334,-34.4025],[-70.9332,-34.4024],[-70.933,-34.4023],[-70.9328,-34.4022],[-70.9327,-34.4022],[-70.9325,-34.4021],[-70.9324,-34.4021],[-70.9323,-34.402],[-70.9319,-34.402],[-70.9318,-34.402],[-70.9316,-34.402],[-70.9315,-34.4021],[-70.9314,-34.4022],[-70.9312,-34.4022],[-70.9309,-34.4024],[-70.9305,-34.4026],[-70.9304,-34.4026],[-70.93,-34.4026],[-70.9296,-34.4025],[-70.9295,-34.4025],[-70.9293,-34.4025],[-70.9292,-34.4024],[-70.9289,-34.4023],[-70.9288,-34.4022],[-70.9286,-34.4021],[-70.9284,-34.402],[-70.9281,-34.4017],[-70.9276,-34.4014],[-70.9274,-34.4014],[-70.9272,-34.4013],[-70.9268,-34.4011],[-70.9267,-34.401],[-70.9265,-34.401],[-70.9262,-34.401],[-70.9261,-34.401],[-70.9259,-34.4011],[-70.9256,-34.4012],[-70.9255,-34.4013],[-70.9254,-34.4014],[-70.9253,-34.4015],[-70.9252,-34.4016],[-70.9251,-34.4017],[-70.925,-34.4018],[-70.9248,-34.402],[-70.9246,-34.4021],[-70.9244,-34.4023],[-70.9242,-34.4025],[-70.9241,-34.4026],[-70.924,-34.4027],[-70.9239,-34.4027],[-70.9238,-34.4029],[-70.9237,-34.403],[-70.9236,-34.403],[-70.9235,-34.403],[-70.9234,-34.4031],[-70.9232,-34.4031],[-70.9231,-34.4031],[-70.9228,-34.4031],[-70.9226,-34.4031],[-70.9223,-34.4031],[-70.9221,-34.403],[-70.922,-34.403],[-70.9217,-34.403],[-70.9216,-34.4029],[-70.9214,-34.4028],[-70.9212,-34.4028],[-70.9211,-34.4027],[-70.921,-34.4025],[-70.9209,-34.4024],[-70.9208,-34.4023],[-70.9207,-34.4021],[-70.9206,-34.402],[-70.9203,-34.4012],[-70.9202,-34.4011],[-70.92,-34.4006],[-70.9199,-34.4005],[-70.9197,-34.4002],[-70.9196,-34.4001],[-70.9196,-34.4],[-70.9194,-34.3997],[-70.9191,-34.3995],[-70.919,-34.3994],[-70.9188,-34.3993],[-70.9185,-34.399],[-70.9183,-34.3987],[-70.9181,-34.3986],[-70.918,-34.3985],[-70.9178,-34.3984],[-70.9176,-34.3984],[-70.9175,-34.3984],[-70.9172,-34.3984],[-70.9171,-34.3984],[-70.917,-34.3984],[-70.9169,-34.3984],[-70.9167,-34.3985],[-70.9162,-34.3986],[-70.9158,-34.3987],[-70.9156,-34.3987],[-70.9154,-34.3988],[-70.9152,-34.3988],[-70.9149,-34.3988],[-70.9146,-34.3988],[-70.9145,-34.3987],[-70.9144,-34.3987],[-70.9142,-34.3986],[-70.9141,-34.3986],[-70.9139,-34.3984],[-70.9137,-34.3983],[-70.9135,-34.3981],[-70.9133,-34.3979],[-70.9132,-34.3978],[-70.9129,-34.3975],[-70.9128,-34.3974],[-70.9127,-34.3973],[-70.9126,-34.3972],[-70.9126,-34.3971],[-70.9122,-34.3968],[-70.9121,-34.3967],[-70.912,-34.3967],[-70.9119,-34.3965],[-70.9117,-34.3962],[-70.9116,-34.396],[-70.9115,-34.3958],[-70.9112,-34.3955],[-70.911,-34.3953],[-70.9106,-34.3949],[-70.9069,-34.3957],[-70.9065,-34.3961],[-70.9077,-34.404],[-70.9068,-34.404],[-70.8977,-34.4039],[-70.8978,-34.4043],[-70.8993,-34.4045],[-70.9009,-34.4062],[-70.9019,-34.4065],[-70.9021,-34.4075],[-70.9026,-34.4079],[-70.9037,-34.4085],[-70.9054,-34.4093],[-70.9059,-34.4103],[-70.907,-34.4108],[-70.9078,-34.4108],[-70.9076,-34.4114],[-70.9067,-34.4121],[-70.9056,-34.4126],[-70.9043,-34.4132],[-70.9026,-34.414],[-70.903,-34.4183],[-70.9033,-34.4213],[-70.9044,-34.4234],[-70.9043,-34.4247],[-70.9052,-34.4268],[-70.9059,-34.4279],[-70.9068,-34.4295],[-70.9073,-34.4308],[-70.9065,-34.4315],[-70.9052,-34.4306],[-70.9045,-34.4297],[-70.9035,-34.4291],[-70.9017,-34.4292],[-70.9007,-34.4283],[-70.8992,-34.4278],[-70.8976,-34.428],[-70.8963,-34.4268],[-70.8955,-34.4265],[-70.8937,-34.4272],[-70.8933,-34.4277],[-70.892,-34.4285],[-70.891,-34.4285],[-70.8898,-34.4285],[-70.8892,-34.4288],[-70.8887,-34.4296],[-70.8887,-34.4309],[-70.8879,-34.4317],[-70.8853,-34.4318],[-70.8848,-34.4316],[-70.8845,-34.4321],[-70.8838,-34.4324],[-70.8832,-34.4327],[-70.8825,-34.4325],[-70.8815,-34.4325],[-70.8813,-34.4324],[-70.8802,-34.4326],[-70.8794,-34.4329],[-70.8783,-34.4332],[-70.8776,-34.4334],[-70.8769,-34.4338],[-70.8766,-34.434],[-70.8766,-34.4343],[-70.8763,-34.4351],[-70.876,-34.4355],[-70.8749,-34.4358],[-70.8718,-34.4354],[-70.8698,-34.4346],[-70.867,-34.434],[-70.8651,-34.4348],[-70.8623,-34.4345],[-70.8608,-34.4355],[-70.8614,-34.4395],[-70.8592,-34.441],[-70.8561,-34.4418],[-70.8524,-34.443],[-70.8465,-34.4463],[-70.8457,-34.4494],[-70.8426,-34.4504],[-70.8388,-34.449],[-70.8345,-34.4491],[-70.8325,-34.4494],[-70.828,-34.4518],[-70.8261,-34.455],[-70.8215,-34.4576],[-70.8201,-34.4566],[-70.8173,-34.4554],[-70.8172,-34.4554],[-70.8169,-34.4555],[-70.8166,-34.4556],[-70.8164,-34.4557],[-70.8161,-34.4559],[-70.8159,-34.4561],[-70.8157,-34.4563],[-70.8156,-34.4564],[-70.8152,-34.4568],[-70.8149,-34.4573],[-70.8149,-34.4576],[-70.8148,-34.4577],[-70.8146,-34.4579],[-70.8145,-34.458],[-70.8144,-34.4581],[-70.8143,-34.4583],[-70.8142,-34.4584],[-70.8139,-34.4592],[-70.8136,-34.4595],[-70.8135,-34.4599],[-70.8134,-34.46],[-70.8132,-34.4603],[-70.8131,-34.4604],[-70.8127,-34.4609],[-70.8126,-34.4611],[-70.8124,-34.4614],[-70.8119,-34.4619],[-70.8118,-34.4619],[-70.8116,-34.4619],[-70.8113,-34.462],[-70.8111,-34.4621],[-70.8109,-34.4623],[-70.8107,-34.4624],[-70.8099,-34.4629],[-70.8097,-34.463],[-70.8095,-34.4631],[-70.8092,-34.4632],[-70.8086,-34.4634],[-70.8085,-34.4635],[-70.8084,-34.4636],[-70.8081,-34.4638],[-70.808,-34.4638],[-70.8076,-34.464],[-70.8075,-34.464],[-70.8073,-34.4642],[-70.8072,-34.4644],[-70.8071,-34.4646],[-70.807,-34.4651],[-70.807,-34.4652],[-70.807,-34.4654],[-70.807,-34.4658],[-70.8069,-34.4658],[-70.8069,-34.4659],[-70.8069,-34.4662],[-70.8068,-34.4663],[-70.8067,-34.4665],[-70.8066,-34.4666],[-70.8064,-34.467],[-70.8063,-34.4672],[-70.8063,-34.4673],[-70.8064,-34.4677],[-70.8064,-34.4678],[-70.8064,-34.4682],[-70.8063,-34.4684],[-70.8061,-34.4686],[-70.806,-34.4687],[-70.8057,-34.4689],[-70.8055,-34.469],[-70.8053,-34.4691],[-70.8047,-34.4694],[-70.8045,-34.4696],[-70.8044,-34.4697],[-70.8042,-34.4701],[-70.804,-34.4703],[-70.8038,-34.4705],[-70.8034,-34.471],[-70.8033,-34.4713],[-70.8031,-34.4716],[-70.8029,-34.4719],[-70.8028,-34.4722],[-70.8027,-34.4726],[-70.8026,-34.4727],[-70.8024,-34.4729],[-70.802,-34.4731],[-70.8014,-34.4734],[-70.8012,-34.4735],[-70.8005,-34.4737],[-70.8,-34.474],[-70.7999,-34.474],[-70.7997,-34.4742],[-70.799,-34.4747],[-70.7986,-34.4752],[-70.7985,-34.4752],[-70.7983,-34.4754],[-70.798,-34.4758],[-70.7978,-34.4763],[-70.7976,-34.4765],[-70.7975,-34.4766],[-70.7973,-34.4767],[-70.7971,-34.4768],[-70.7967,-34.4769],[-70.7965,-34.477],[-70.7963,-34.4771],[-70.796,-34.4773],[-70.7957,-34.4776],[-70.7955,-34.4778],[-70.7952,-34.478],[-70.7949,-34.4781],[-70.7948,-34.4782],[-70.7945,-34.4785],[-70.7944,-34.4786],[-70.7942,-34.4787],[-70.7941,-34.4789],[-70.794,-34.4791],[-70.7935,-34.4796],[-70.7934,-34.4799],[-70.7934,-34.4803],[-70.7934,-34.4805],[-70.7933,-34.4809],[-70.7933,-34.481],[-70.7933,-34.4813],[-70.7933,-34.4814],[-70.7934,-34.4816],[-70.7934,-34.4818],[-70.7933,-34.4823],[-70.7934,-34.4826],[-70.7935,-34.483],[-70.7937,-34.4832],[-70.7937,-34.4833],[-70.7936,-34.4834],[-70.7934,-34.4835],[-70.7933,-34.4835],[-70.7929,-34.4837],[-70.7922,-34.484],[-70.7918,-34.4842],[-70.7915,-34.4845],[-70.7912,-34.4847],[-70.7903,-34.4851],[-70.79,-34.4853],[-70.7899,-34.4854],[-70.7898,-34.4854],[-70.7895,-34.4856],[-70.7893,-34.4858],[-70.7887,-34.486],[-70.7886,-34.486],[-70.7884,-34.4861],[-70.7881,-34.4862],[-70.7878,-34.4864],[-70.7874,-34.4866],[-70.7873,-34.4866],[-70.7871,-34.4867],[-70.7869,-34.4869],[-70.7865,-34.4871],[-70.7861,-34.4874],[-70.7859,-34.4875],[-70.7857,-34.4876],[-70.7855,-34.4878],[-70.7853,-34.4879],[-70.785,-34.4883],[-70.7849,-34.4884],[-70.7849,-34.4885],[-70.7847,-34.4892],[-70.7846,-34.4895],[-70.7844,-34.4897],[-70.7844,-34.4898],[-70.7843,-34.4899],[-70.7842,-34.4901],[-70.7842,-34.4902],[-70.7834,-34.4912],[-70.7831,-34.4914],[-70.7827,-34.4917],[-70.7825,-34.4918],[-70.7822,-34.492],[-70.7819,-34.4921],[-70.7814,-34.4923],[-70.781,-34.4924],[-70.7804,-34.4927],[-70.7803,-34.4927],[-70.78,-34.4929],[-70.779,-34.4931],[-70.7789,-34.4932],[-70.7787,-34.4933],[-70.7785,-34.4935],[-70.7778,-34.4942],[-70.7776,-34.4945],[-70.7775,-34.4946],[-70.7773,-34.4947],[-70.777,-34.4948],[-70.7767,-34.4948],[-70.7764,-34.4949],[-70.7762,-34.495],[-70.7759,-34.4951],[-70.7758,-34.4951],[-70.7749,-34.4952],[-70.7744,-34.4954],[-70.7741,-34.4956],[-70.7736,-34.4957],[-70.7732,-34.4959],[-70.773,-34.4961],[-70.7729,-34.4961],[-70.7727,-34.4963],[-70.7725,-34.4965],[-70.7723,-34.4968],[-70.772,-34.4972],[-70.7715,-34.4978],[-70.771,-34.4981],[-70.7706,-34.4985],[-70.7704,-34.4988],[-70.7703,-34.4988],[-70.7702,-34.4989],[-70.7696,-34.4991],[-70.7692,-34.4993],[-70.7689,-34.4994],[-70.7681,-34.4996],[-70.7679,-34.4997],[-70.7675,-34.4999],[-70.7669,-34.5004],[-70.7667,-34.5005],[-70.7666,-34.5006],[-70.7662,-34.5007],[-70.766,-34.5007],[-70.7656,-34.5009],[-70.7651,-34.501],[-70.7646,-34.5011],[-70.7644,-34.5012],[-70.7642,-34.5013],[-70.764,-34.5013],[-70.7639,-34.5014],[-70.7638,-34.5015],[-70.7634,-34.5023],[-70.7634,-34.5025],[-70.7633,-34.5029],[-70.7633,-34.503],[-70.7633,-34.5032],[-70.7632,-34.5033],[-70.7629,-34.5041],[-70.7625,-34.5046],[-70.7624,-34.5047],[-70.7623,-34.5051],[-70.7623,-34.5053],[-70.7622,-34.5054],[-70.7622,-34.5058],[-70.7622,-34.5061],[-70.7621,-34.5066],[-70.7621,-34.5067],[-70.762,-34.5072],[-70.762,-34.5075],[-70.762,-34.5076],[-70.7621,-34.5079],[-70.7621,-34.508],[-70.7621,-34.5082],[-70.762,-34.5083],[-70.7618,-34.5085],[-70.7617,-34.5086],[-70.7616,-34.5087],[-70.7614,-34.5089],[-70.7611,-34.5091],[-70.7605,-34.5094],[-70.7598,-34.5098],[-70.7593,-34.51],[-70.7587,-34.5104],[-70.7582,-34.5108],[-70.7581,-34.5108],[-70.7576,-34.5112],[-70.7573,-34.5114],[-70.7569,-34.5116],[-70.7564,-34.5118],[-70.7559,-34.5121],[-70.7558,-34.5121],[-70.7548,-34.5126],[-70.754,-34.5129],[-70.7535,-34.5131],[-70.7527,-34.5137],[-70.7526,-34.5138],[-70.7524,-34.5139],[-70.752,-34.5142],[-70.752,-34.5143],[-70.7517,-34.5147],[-70.7516,-34.5148],[-70.7514,-34.515],[-70.7511,-34.5151],[-70.7508,-34.5152],[-70.7507,-34.5152],[-70.7504,-34.5153],[-70.7494,-34.5155],[-70.7491,-34.5155],[-70.7487,-34.5157],[-70.7483,-34.5159],[-70.7481,-34.5161],[-70.748,-34.5161],[-70.7477,-34.5163],[-70.7475,-34.5164],[-70.7473,-34.5165],[-70.7472,-34.5165],[-70.7468,-34.5167],[-70.7465,-34.5168],[-70.7464,-34.5168],[-70.7455,-34.5172],[-70.7452,-34.5174],[-70.7448,-34.5178],[-70.7447,-34.5179],[-70.7445,-34.518],[-70.7439,-34.518],[-70.7438,-34.518],[-70.7435,-34.5179],[-70.7433,-34.5179],[-70.7429,-34.5178],[-70.7426,-34.5178],[-70.7423,-34.5178],[-70.7414,-34.5181],[-70.7408,-34.5182],[-70.7405,-34.5182],[-70.7397,-34.5181],[-70.7388,-34.5181],[-70.7386,-34.5181],[-70.7384,-34.5181],[-70.7381,-34.5181],[-70.7375,-34.518],[-70.7372,-34.518],[-70.7368,-34.5181],[-70.7365,-34.5182],[-70.7357,-34.5182],[-70.7339,-34.5183],[-70.7332,-34.5183],[-70.7325,-34.5183],[-70.7321,-34.5183],[-70.732,-34.5183],[-70.7262,-34.518],[-70.719,-34.5238],[-70.7205,-34.5281],[-70.7212,-34.5302],[-70.7211,-34.5327],[-70.7169,-34.5363],[-70.7133,-34.5354],[-70.7082,-34.538],[-70.709,-34.5406],[-70.7093,-34.542],[-70.7091,-34.5428],[-70.7086,-34.5434],[-70.7081,-34.544],[-70.7079,-34.5449],[-70.707,-34.5457],[-70.7071,-34.5465],[-70.7077,-34.5481],[-70.709,-34.5501],[-70.7067,-34.5519],[-70.706,-34.5528],[-70.7051,-34.5536],[-70.7044,-34.5542],[-70.7036,-34.5543],[-70.7026,-34.5538],[-70.7014,-34.553],[-70.6997,-34.5523],[-70.6983,-34.5518],[-70.6963,-34.5507],[-70.695,-34.5505],[-70.6924,-34.5509],[-70.6903,-34.5515],[-70.6876,-34.5511],[-70.6862,-34.5505],[-70.6846,-34.5501],[-70.6824,-34.5497],[-70.6777,-34.5477],[-70.6745,-34.5465],[-70.6733,-34.5462],[-70.6724,-34.5468],[-70.669,-34.5476],[-70.6676,-34.5476],[-70.6655,-34.5479],[-70.6642,-34.548],[-70.663,-34.5479],[-70.6608,-34.5482],[-70.6585,-34.5489],[-70.6569,-34.5499],[-70.6563,-34.5519],[-70.6555,-34.5529],[-70.6542,-34.5542],[-70.6521,-34.5559],[-70.6502,-34.5578],[-70.6494,-34.5585],[-70.6478,-34.5586],[-70.6467,-34.5591],[-70.6457,-34.5605],[-70.645,-34.5615],[-70.6445,-34.5641],[-70.6447,-34.5665],[-70.6449,-34.5677],[-70.6443,-34.569],[-70.6437,-34.5707],[-70.6428,-34.5724],[-70.6422,-34.5735],[-70.6413,-34.5746],[-70.6407,-34.5757],[-70.6408,-34.5765],[-70.6411,-34.5776],[-70.6418,-34.5786],[-70.6426,-34.5797],[-70.6427,-34.5809],[-70.6426,-34.582],[-70.6424,-34.5832],[-70.6425,-34.5843],[-70.6431,-34.5854],[-70.6439,-34.5863],[-70.644,-34.5871],[-70.644,-34.5883],[-70.6438,-34.5892],[-70.6441,-34.5899],[-70.6446,-34.5904],[-70.645,-34.591],[-70.6458,-34.5915],[-70.6459,-34.592],[-70.6449,-34.592],[-70.6436,-34.592],[-70.642,-34.5915],[-70.6411,-34.5915],[-70.6394,-34.5918],[-70.6376,-34.5917],[-70.6363,-34.592],[-70.6352,-34.5919],[-70.6341,-34.5923],[-70.6331,-34.5931],[-70.632,-34.5938],[-70.6305,-34.5943],[-70.6295,-34.5943],[-70.6284,-34.5946],[-70.6275,-34.5953],[-70.627,-34.5954],[-70.6267,-34.5947],[-70.627,-34.594],[-70.6275,-34.5928],[-70.6276,-34.5912],[-70.6275,-34.5897],[-70.627,-34.5883],[-70.6263,-34.5875],[-70.6257,-34.5866],[-70.6257,-34.586],[-70.6251,-34.5853],[-70.624,-34.585],[-70.6228,-34.5852],[-70.6215,-34.5856],[-70.6203,-34.5857],[-70.6188,-34.5855],[-70.6178,-34.5849],[-70.6169,-34.5845],[-70.616,-34.5841],[-70.614,-34.5842],[-70.6129,-34.5842],[-70.6119,-34.5839],[-70.6105,-34.5838],[-70.6085,-34.5834],[-70.6063,-34.5828],[-70.6042,-34.5822],[-70.6023,-34.5815],[-70.6008,-34.5808],[-70.5996,-34.5799],[-70.599,-34.5791],[-70.5986,-34.5785],[-70.5978,-34.5784],[-70.5966,-34.5785],[-70.595,-34.5784],[-70.5923,-34.5777],[-70.5903,-34.5771],[-70.5891,-34.577],[-70.588,-34.577],[-70.5866,-34.5774],[-70.5857,-34.5776],[-70.5845,-34.5773],[-70.5827,-34.5766],[-70.5804,-34.5767],[-70.5785,-34.577],[-70.5768,-34.5771],[-70.5757,-34.5773],[-70.5746,-34.5778],[-70.574,-34.5786],[-70.573,-34.5797],[-70.5724,-34.5802],[-70.5713,-34.581],[-70.5701,-34.5814],[-70.5683,-34.5812],[-70.5666,-34.5813],[-70.5653,-34.5816],[-70.5639,-34.5822],[-70.5626,-34.5831],[-70.5609,-34.5833],[-70.5602,-34.5837],[-70.5599,-34.5846],[-70.5589,-34.5851],[-70.5579,-34.5859],[-70.5571,-34.5862],[-70.5559,-34.5868],[-70.5547,-34.5875],[-70.5536,-34.5881],[-70.553,-34.5892],[-70.552,-34.5903],[-70.5513,-34.5915],[-70.5503,-34.5929],[-70.5501,-34.594],[-70.5495,-34.5953],[-70.5486,-34.5963],[-70.5473,-34.5965],[-70.5465,-34.5963],[-70.5456,-34.5964],[-70.5445,-34.597],[-70.5429,-34.5977],[-70.5412,-34.5983],[-70.5402,-34.5993],[-70.5389,-34.6009],[-70.5379,-34.6019],[-70.5365,-34.6029],[-70.5335,-34.6036],[-70.5301,-34.6047],[-70.527,-34.6062],[-70.5249,-34.6076],[-70.5242,-34.6078],[-70.5236,-34.6083],[-70.5219,-34.6087],[-70.5214,-34.6081],[-70.5207,-34.6062],[-70.5191,-34.6039],[-70.5174,-34.6029],[-70.5161,-34.6009],[-70.5148,-34.5984],[-70.5132,-34.5968],[-70.511,-34.5965],[-70.5074,-34.5968],[-70.5042,-34.597],[-70.5028,-34.5973],[-70.5015,-34.5974],[-70.5004,-34.597],[-70.4975,-34.5968],[-70.4962,-34.5969],[-70.4943,-34.5976],[-70.493,-34.5988],[-70.4914,-34.6005],[-70.4903,-34.6022],[-70.4891,-34.6036],[-70.4858,-34.6061],[-70.4834,-34.607],[-70.4816,-34.6046],[-70.4764,-34.6012],[-70.4729,-34.5998],[-70.4719,-34.5978],[-70.4718,-34.5967],[-70.4715,-34.595],[-70.4711,-34.5941],[-70.4696,-34.5924],[-70.468,-34.5898],[-70.4686,-34.5887],[-70.4694,-34.5875],[-70.4697,-34.5866],[-70.4696,-34.5859],[-70.4694,-34.5851],[-70.469,-34.5828],[-70.4688,-34.5817],[-70.4689,-34.5799],[-70.4689,-34.579],[-70.4688,-34.5785],[-70.4683,-34.5777],[-70.4681,-34.577],[-70.4683,-34.5761],[-70.4685,-34.5751],[-70.4687,-34.5741],[-70.4688,-34.5729],[-70.4691,-34.5719],[-70.4695,-34.571],[-70.4698,-34.5704],[-70.4704,-34.5698],[-70.4718,-34.5692],[-70.4736,-34.5683],[-70.475,-34.5677],[-70.4756,-34.5674],[-70.4762,-34.5674],[-70.4773,-34.5677],[-70.4784,-34.5678],[-70.4798,-34.5679],[-70.4812,-34.5681],[-70.4827,-34.5681],[-70.4838,-34.5681],[-70.486,-34.5676],[-70.4868,-34.5671],[-70.4876,-34.5664],[-70.4878,-34.5655],[-70.4882,-34.5651],[-70.4885,-34.5638],[-70.4883,-34.5628],[-70.4882,-34.5621],[-70.4882,-34.5615],[-70.4885,-34.5606],[-70.4887,-34.5591],[-70.4888,-34.5586],[-70.4889,-34.5576],[-70.4892,-34.5567],[-70.4893,-34.556],[-70.4895,-34.5555],[-70.4899,-34.5549],[-70.4907,-34.5541],[-70.4907,-34.5535],[-70.4905,-34.5528],[-70.4903,-34.5517],[-70.49,-34.5497],[-70.4899,-34.549],[-70.4895,-34.5488],[-70.4879,-34.5471],[-70.487,-34.5458],[-70.4858,-34.5434],[-70.4858,-34.5424],[-70.4854,-34.5412],[-70.4851,-34.5401],[-70.485,-34.5394],[-70.4851,-34.5375],[-70.4848,-34.5363],[-70.484,-34.5349],[-70.4837,-34.5334],[-70.4836,-34.5328],[-70.4839,-34.5315],[-70.4843,-34.531],[-70.4849,-34.5305],[-70.4857,-34.5299],[-70.4857,-34.5294],[-70.4853,-34.5285],[-70.4848,-34.5258],[-70.4847,-34.5255],[-70.4852,-34.524],[-70.485,-34.523],[-70.4849,-34.5218],[-70.4844,-34.5201],[-70.4839,-34.5198],[-70.4825,-34.5183],[-70.4823,-34.5178],[-70.4812,-34.5167],[-70.4808,-34.5161],[-70.481,-34.5152],[-70.4812,-34.5141],[-70.4811,-34.5114],[-70.4806,-34.511],[-70.4801,-34.5099],[-70.4801,-34.5089],[-70.4807,-34.5067],[-70.4809,-34.5061],[-70.4814,-34.5057],[-70.4824,-34.5055],[-70.4833,-34.5052],[-70.4837,-34.5049],[-70.4839,-34.5044],[-70.4837,-34.5039],[-70.4831,-34.5034],[-70.4829,-34.5027],[-70.4829,-34.502],[-70.4833,-34.5013],[-70.4845,-34.4998],[-70.4848,-34.4993],[-70.4855,-34.4983],[-70.4857,-34.4975],[-70.4863,-34.4969],[-70.4867,-34.4963],[-70.488,-34.496],[-70.4886,-34.4954],[-70.4898,-34.4944],[-70.4913,-34.4931],[-70.4919,-34.4924],[-70.4924,-34.492],[-70.4932,-34.4918],[-70.4939,-34.4918],[-70.4945,-34.4917],[-70.4953,-34.4917],[-70.4964,-34.4919],[-70.4978,-34.4919],[-70.4994,-34.4919],[-70.5016,-34.4919],[-70.5032,-34.4916],[-70.5054,-34.4917],[-70.5065,-34.492],[-70.5079,-34.4925],[-70.5088,-34.4929],[-70.5097,-34.4927],[-70.5109,-34.4927],[-70.5122,-34.4929],[-70.5137,-34.4936],[-70.5152,-34.4949],[-70.5163,-34.4961],[-70.518,-34.4968],[-70.52,-34.4975],[-70.5214,-34.4977],[-70.5226,-34.4977],[-70.5235,-34.4973],[-70.5242,-34.4965],[-70.5251,-34.4956],[-70.5265,-34.4944],[-70.5274,-34.4938],[-70.5289,-34.4929],[-70.5296,-34.492],[-70.5303,-34.4913],[-70.5309,-34.4898],[-70.5318,-34.4896],[-70.5329,-34.4895],[-70.5336,-34.489],[-70.534,-34.4887],[-70.5346,-34.4886],[-70.5352,-34.4887],[-70.5356,-34.4889],[-70.5362,-34.4889],[-70.5369,-34.4888],[-70.5374,-34.4886],[-70.5381,-34.4887],[-70.5387,-34.4889],[-70.5401,-34.4897],[-70.541,-34.4902],[-70.5416,-34.4907],[-70.5423,-34.4909],[-70.5432,-34.4911],[-70.5439,-34.4915],[-70.5449,-34.492],[-70.5454,-34.4924],[-70.5459,-34.4929],[-70.5465,-34.4933],[-70.5482,-34.4939],[-70.5489,-34.4944],[-70.55,-34.4949],[-70.5517,-34.4953],[-70.5528,-34.4955],[-70.5535,-34.4954],[-70.5543,-34.4955],[-70.5554,-34.496],[-70.5561,-34.4964],[-70.5566,-34.497],[-70.5571,-34.4971],[-70.5576,-34.4969],[-70.5581,-34.4969],[-70.5588,-34.4971],[-70.5592,-34.4975],[-70.5598,-34.4977],[-70.5602,-34.4975],[-70.5608,-34.4968],[-70.5618,-34.4958],[-70.5649,-34.4942],[-70.5657,-34.494],[-70.5661,-34.4937],[-70.5662,-34.4934],[-70.5668,-34.4931],[-70.5675,-34.4927],[-70.568,-34.4921],[-70.5691,-34.4907],[-70.5697,-34.4898],[-70.5703,-34.4888],[-70.571,-34.488],[-70.5716,-34.4871],[-70.5724,-34.4859],[-70.5734,-34.4848],[-70.5736,-34.4836],[-70.5743,-34.4827],[-70.5746,-34.482],[-70.5747,-34.4807],[-70.5745,-34.4801],[-70.5745,-34.4793],[-70.5747,-34.4789],[-70.575,-34.4784],[-70.5752,-34.4776],[-70.5753,-34.477],[-70.5756,-34.4761],[-70.576,-34.4756],[-70.5765,-34.4751],[-70.5771,-34.4743],[-70.5777,-34.4733],[-70.579,-34.472],[-70.5803,-34.4709],[-70.5816,-34.4699],[-70.5818,-34.4693],[-70.5818,-34.4681],[-70.5819,-34.467],[-70.5818,-34.4661],[-70.5816,-34.4644],[-70.5814,-34.4636],[-70.5809,-34.4628],[-70.5807,-34.4622],[-70.581,-34.4604],[-70.581,-34.4597],[-70.5804,-34.458],[-70.5804,-34.4566],[-70.5811,-34.4544],[-70.5817,-34.4536],[-70.5826,-34.453],[-70.5839,-34.4526],[-70.5855,-34.4522],[-70.5878,-34.4518],[-70.5892,-34.4517],[-70.5905,-34.4516],[-70.5919,-34.4519],[-70.593,-34.4524],[-70.5938,-34.4528],[-70.5953,-34.453],[-70.5961,-34.453],[-70.5983,-34.4529],[-70.6002,-34.4527],[-70.601,-34.4525],[-70.6017,-34.4524],[-70.6031,-34.4524],[-70.6044,-34.4522],[-70.6062,-34.4517],[-70.6083,-34.4511],[-70.6103,-34.4501],[-70.6119,-34.4495],[-70.6135,-34.449],[-70.6144,-34.4489],[-70.6152,-34.4489],[-70.6168,-34.4486],[-70.6179,-34.4485],[-70.6188,-34.4486],[-70.6197,-34.449],[-70.6201,-34.4495],[-70.6211,-34.4502],[-70.6225,-34.4511],[-70.6234,-34.4517],[-70.6244,-34.4521],[-70.6252,-34.4523],[-70.6257,-34.4523],[-70.6267,-34.4524],[-70.6274,-34.4524],[-70.628,-34.4523],[-70.6289,-34.4521],[-70.63,-34.4518],[-70.6305,-34.4514],[-70.6313,-34.4503],[-70.6323,-34.4489],[-70.633,-34.4478],[-70.6336,-34.4474],[-70.6343,-34.4473],[-70.635,-34.4474],[-70.6359,-34.4478],[-70.6369,-34.4485],[-70.6373,-34.4491],[-70.6377,-34.4495],[-70.6389,-34.4506],[-70.6407,-34.4524],[-70.6416,-34.4534],[-70.6428,-34.4544],[-70.6433,-34.455],[-70.6447,-34.4569],[-70.6464,-34.4581],[-70.6485,-34.4593],[-70.6508,-34.4595],[-70.6527,-34.4604],[-70.6536,-34.4611],[-70.6557,-34.4621],[-70.6579,-34.4629],[-70.6599,-34.4633],[-70.6617,-34.4636],[-70.663,-34.4635],[-70.6644,-34.4634],[-70.666,-34.4632],[-70.6676,-34.463],[-70.6687,-34.4626],[-70.6694,-34.4624],[-70.6702,-34.4618],[-70.6706,-34.4611],[-70.6706,-34.4605],[-70.6704,-34.4599],[-70.6705,-34.4591],[-70.6708,-34.4584],[-70.6715,-34.4574],[-70.6721,-34.4566],[-70.6732,-34.4559],[-70.6742,-34.4553],[-70.6748,-34.4548],[-70.6755,-34.4541],[-70.6756,-34.4537],[-70.6757,-34.453],[-70.6752,-34.4523],[-70.6743,-34.4519],[-70.6729,-34.4515],[-70.6719,-34.4513],[-70.6717,-34.4505],[-70.6719,-34.4494],[-70.673,-34.4475],[-70.6742,-34.4447],[-70.6741,-34.4443],[-70.6732,-34.4435],[-70.6727,-34.4433],[-70.6719,-34.4426],[-70.6693,-34.4416],[-70.668,-34.4411],[-70.6663,-34.4398],[-70.6655,-34.4392],[-70.6647,-34.4375],[-70.6644,-34.4368],[-70.6652,-34.4341],[-70.6664,-34.4318],[-70.6672,-34.4306],[-70.6674,-34.4302],[-70.6675,-34.4298],[-70.6676,-34.4294],[-70.6687,-34.4285],[-70.6695,-34.4278],[-70.6712,-34.4252],[-70.6719,-34.4226],[-70.6716,-34.4211],[-70.671,-34.4199],[-70.6702,-34.4194],[-70.6697,-34.4187],[-70.6687,-34.4175],[-70.6678,-34.4161],[-70.6673,-34.4145],[-70.667,-34.4142],[-70.6665,-34.4127],[-70.6673,-34.4117],[-70.6681,-34.4099],[-70.668,-34.4086],[-70.668,-34.4071],[-70.6681,-34.4059],[-70.6682,-34.4051],[-70.6686,-34.4047],[-70.6691,-34.4045],[-70.6698,-34.404],[-70.6703,-34.4035],[-70.671,-34.4033],[-70.6719,-34.4031],[-70.6725,-34.4028],[-70.6737,-34.4028],[-70.6746,-34.4026],[-70.6754,-34.4026],[-70.6763,-34.4025],[-70.6775,-34.402],[-70.6782,-34.402],[-70.6803,-34.4015],[-70.6814,-34.4014],[-70.6826,-34.4012],[-70.6838,-34.4012],[-70.6855,-34.4007],[-70.6863,-34.4008],[-70.6868,-34.4013],[-70.6874,-34.4016],[-70.6876,-34.4021],[-70.6879,-34.4026],[-70.6884,-34.403],[-70.6909,-34.4042],[-70.6917,-34.4043],[-70.6932,-34.4049],[-70.6955,-34.4051],[-70.6965,-34.4053],[-70.6979,-34.4053],[-70.7003,-34.4049],[-70.7008,-34.4046],[-70.7012,-34.404],[-70.7017,-34.4032],[-70.702,-34.4024],[-70.7022,-34.4015],[-70.7022,-34.4007],[-70.7021,-34.3989],[-70.7021,-34.3986],[-70.7024,-34.3981],[-70.7029,-34.3977],[-70.7038,-34.3975],[-70.7053,-34.3972],[-70.7058,-34.397],[-70.7062,-34.3966],[-70.7065,-34.3958],[-70.7069,-34.3949],[-70.7072,-34.3942],[-70.7078,-34.3936],[-70.7082,-34.3933],[-70.7086,-34.3925],[-70.7092,-34.3921],[-70.7094,-34.3919],[-70.7099,-34.3918],[-70.7103,-34.3918],[-70.7107,-34.3917],[-70.711,-34.3916],[-70.7116,-34.3919],[-70.712,-34.3923],[-70.7126,-34.3923],[-70.713,-34.3924],[-70.7136,-34.3924],[-70.7142,-34.3922],[-70.715,-34.3916],[-70.7159,-34.391],[-70.7167,-34.3905],[-70.7175,-34.3901],[-70.7177,-34.3897],[-70.7176,-34.389],[-70.7178,-34.3882],[-70.7181,-34.3878],[-70.7186,-34.3873],[-70.7189,-34.387],[-70.7191,-34.3865],[-70.7194,-34.3858],[-70.7201,-34.3853],[-70.7211,-34.3849],[-70.7225,-34.3848],[-70.7237,-34.3847],[-70.7248,-34.3848],[-70.7257,-34.3851],[-70.7265,-34.3854],[-70.7284,-34.3865],[-70.7299,-34.3875],[-70.7317,-34.3887],[-70.7332,-34.3892],[-70.7341,-34.3893],[-70.7349,-34.389],[-70.7354,-34.3886],[-70.7359,-34.3879],[-70.7365,-34.3868],[-70.7373,-34.3861],[-70.7385,-34.3852],[-70.7396,-34.3847],[-70.7405,-34.3841],[-70.7413,-34.3834],[-70.7421,-34.3831],[-70.7432,-34.3828],[-70.7444,-34.3828],[-70.7454,-34.3826],[-70.7461,-34.3825],[-70.7471,-34.382],[-70.7477,-34.3817],[-70.7483,-34.3817],[-70.749,-34.3815],[-70.7502,-34.381],[-70.7509,-34.3805],[-70.752,-34.3798],[-70.7521,-34.3793],[-70.7525,-34.3785],[-70.7529,-34.3782],[-70.7536,-34.3782],[-70.7542,-34.3783],[-70.7547,-34.378],[-70.7548,-34.3777],[-70.7551,-34.3772],[-70.7555,-34.3755],[-70.7565,-34.3752],[-70.7576,-34.375],[-70.7597,-34.3746],[-70.7632,-34.3739],[-70.7635,-34.3736],[-70.7635,-34.3722],[-70.7637,-34.3718],[-70.764,-34.3716],[-70.7643,-34.3714],[-70.7643,-34.3709],[-70.7644,-34.3702],[-70.7648,-34.3694],[-70.7661,-34.3685],[-70.7674,-34.3673],[-70.7675,-34.3666],[-70.7676,-34.3661],[-70.7677,-34.3644],[-70.7682,-34.3637],[-70.7691,-34.3628],[-70.7699,-34.3623],[-70.771,-34.3617],[-70.7712,-34.3613],[-70.7713,-34.3607],[-70.7718,-34.3602],[-70.7732,-34.3587],[-70.7735,-34.3583],[-70.7736,-34.3575],[-70.7737,-34.3529],[-70.7743,-34.3527],[-70.7766,-34.3526],[-70.7776,-34.3524],[-70.7785,-34.352],[-70.7793,-34.3517],[-70.7794,-34.3511],[-70.7797,-34.3506],[-70.7805,-34.3504],[-70.7813,-34.3502],[-70.7844,-34.3491],[-70.786,-34.3483],[-70.7876,-34.348],[-70.788,-34.3478],[-70.7897,-34.3465],[-70.7904,-34.3461],[-70.7907,-34.3453],[-70.7911,-34.345],[-70.7918,-34.3449],[-70.7921,-34.3447],[-70.7926,-34.3447],[-70.793,-34.3444],[-70.7956,-34.3425],[-70.7959,-34.3425],[-70.8017,-34.3442],[-70.8027,-34.3447],[-70.803,-34.3457],[-70.8031,-34.346],[-70.8035,-34.346],[-70.8062,-34.3452],[-70.8098,-34.3453],[-70.8106,-34.3452],[-70.8111,-34.3451],[-70.8114,-34.3447],[-70.8116,-34.3442],[-70.812,-34.3436],[-70.8123,-34.3432],[-70.8122,-34.343],[-70.8121,-34.3429],[-70.8094,-34.3404],[-70.8093,-34.3402],[-70.8112,-34.3398],[-70.8128,-34.3395],[-70.8153,-34.339],[-70.8199,-34.338],[-70.823,-34.3374],[-70.8258,-34.3368],[-70.8283,-34.3363],[-70.8302,-34.3359],[-70.8343,-34.335],[-70.8306,-34.3239],[-70.8277,-34.315],[-70.8267,-34.3115],[-70.8309,-34.3103],[-70.8348,-34.3093],[-70.8367,-34.3088],[-70.8379,-34.3085],[-70.8387,-34.3083],[-70.8389,-34.3086],[-70.8396,-34.3087],[-70.8406,-34.3082],[-70.8428,-34.3079],[-70.8425,-34.3074],[-70.8449,-34.3067],[-70.8528,-34.3046],[-70.8643,-34.3016],[-70.8701,-34.2998],[-70.8782,-34.2976],[-70.8885,-34.2949],[-70.8886,-34.2948],[-70.8954,-34.2929],[-70.9021,-34.291],[-70.9033,-34.2906],[-70.9037,-34.291],[-70.9042,-34.291],[-70.9048,-34.2908],[-70.9053,-34.2908],[-70.9096,-34.29],[-70.9134,-34.2891],[-70.9142,-34.2897],[-70.9151,-34.2898],[-70.9162,-34.2896],[-70.9168,-34.2895],[-70.9176,-34.2893],[-70.9185,-34.2891],[-70.9192,-34.2889],[-70.9202,-34.288],[-70.9207,-34.2871],[-70.921,-34.2866],[-70.9214,-34.2861],[-70.9221,-34.2859],[-70.923,-34.2859],[-70.9236,-34.2856],[-70.9242,-34.2848],[-70.9246,-34.2845],[-70.925,-34.2843],[-70.9258,-34.284],[-70.9267,-34.2836],[-70.9276,-34.2828],[-70.9302,-34.2805],[-70.9311,-34.2799],[-70.9323,-34.2794],[-70.933,-34.2792],[-70.9335,-34.2797],[-70.9337,-34.2812],[-70.9337,-34.2825],[-70.9337,-34.2832],[-70.9335,-34.2844],[-70.9337,-34.2863],[-70.9338,-34.2876],[-70.9347,-34.2887],[-70.9355,-34.2889],[-70.9365,-34.2892],[-70.9375,-34.2896],[-70.938,-34.2903],[-70.9389,-34.291],[-70.94,-34.2915],[-70.941,-34.2919],[-70.9422,-34.2922],[-70.9432,-34.2926],[-70.9438,-34.2933],[-70.944,-34.2939],[-70.9439,-34.295],[-70.9438,-34.2958],[-70.9434,-34.2966],[-70.9428,-34.2979],[-70.9424,-34.2993],[-70.9423,-34.3002],[-70.9422,-34.3007],[-70.9421,-34.3015],[-70.9422,-34.3031],[-70.9421,-34.3041],[-70.9419,-34.3048],[-70.9415,-34.3053],[-70.9411,-34.3059],[-70.9411,-34.3066],[-70.9413,-34.3076],[-70.9414,-34.3091],[-70.9417,-34.3097],[-70.9424,-34.3105],[-70.9437,-34.3114],[-70.9453,-34.3119],[-70.9474,-34.3124],[-70.9491,-34.3128],[-70.9506,-34.3137],[-70.9503,-34.3144],[-70.9501,-34.3148],[-70.95,-34.3151],[-70.9499,-34.3155],[-70.9498,-34.3159],[-70.9497,-34.3162],[-70.9496,-34.3164],[-70.9494,-34.3167],[-70.9494,-34.317],[-70.9493,-34.3172],[-70.9491,-34.3175],[-70.9489,-34.3177],[-70.9488,-34.3179],[-70.9486,-34.3183],[-70.9486,-34.3185],[-70.9485,-34.3188],[-70.9483,-34.3191],[-70.9481,-34.3193],[-70.948,-34.3196],[-70.9479,-34.3199],[-70.9479,-34.3201],[-70.9479,-34.3204],[-70.9478,-34.3206],[-70.9478,-34.3209],[-70.9478,-34.3211],[-70.9476,-34.3215],[-70.9475,-34.3218],[-70.9475,-34.3222],[-70.9475,-34.3225],[-70.9476,-34.3229],[-70.9476,-34.3233],[-70.9475,-34.3237],[-70.9475,-34.324],[-70.9474,-34.3242],[-70.9474,-34.3244],[-70.9473,-34.3247],[-70.9472,-34.3252],[-70.9471,-34.3254],[-70.9471,-34.3256],[-70.9472,-34.3259],[-70.9473,-34.3261],[-70.9474,-34.3264],[-70.9476,-34.3265],[-70.9477,-34.3269],[-70.9478,-34.3273],[-70.9478,-34.3275],[-70.9478,-34.3278],[-70.9476,-34.3281],[-70.9475,-34.3285],[-70.9473,-34.329],[-70.9471,-34.3294],[-70.9468,-34.3297],[-70.9464,-34.33],[-70.9459,-34.3303],[-70.9456,-34.3305],[-70.9451,-34.3308],[-70.9446,-34.3311],[-70.9442,-34.3314],[-70.9438,-34.3318],[-70.9436,-34.3321],[-70.9431,-34.3327],[-70.9429,-34.3332],[-70.9427,-34.3336],[-70.9424,-34.3341],[-70.9423,-34.3345],[-70.9422,-34.3348],[-70.9422,-34.3351],[-70.9423,-34.3353],[-70.9424,-34.3355],[-70.9426,-34.3358],[-70.9428,-34.3362],[-70.9428,-34.3365],[-70.9428,-34.3368],[-70.9429,-34.3371],[-70.9431,-34.3375],[-70.9432,-34.3376],[-70.9434,-34.3379],[-70.9436,-34.3384],[-70.9437,-34.3388],[-70.9437,-34.3392],[-70.9435,-34.3397],[-70.9434,-34.3402],[-70.943,-34.3405],[-70.9419,-34.3409],[-70.9404,-34.3418],[-70.9397,-34.3422],[-70.9387,-34.3428],[-70.9377,-34.3433],[-70.9362,-34.3441],[-70.9358,-34.3444],[-70.935,-34.3448],[-70.9345,-34.3451],[-70.934,-34.3454],[-70.9338,-34.3455],[-70.9337,-34.3455],[-70.933,-34.3457],[-70.9328,-34.3458],[-70.9327,-34.3458],[-70.9324,-34.346],[-70.9315,-34.3466],[-70.9308,-34.3473],[-70.9305,-34.3475],[-70.9301,-34.3477],[-70.9295,-34.348],[-70.9285,-34.3483],[-70.9297,-34.3494],[-70.9298,-34.3496],[-70.9301,-34.3503],[-70.9304,-34.3515],[-70.9307,-34.3525],[-70.931,-34.3536],[-70.9312,-34.3542],[-70.9313,-34.3547],[-70.9314,-34.3558],[-70.9315,-34.3559],[-70.9324,-34.3572],[-70.9332,-34.3586],[-70.9341,-34.3601],[-70.9341,-34.3602],[-70.9341,-34.3603],[-70.9336,-34.361],[-70.933,-34.3617],[-70.9319,-34.3631],[-70.9298,-34.3657],[-70.93,-34.3658],[-70.93,-34.366],[-70.9305,-34.368],[-70.931,-34.37],[-70.9314,-34.3719],[-70.9317,-34.3731],[-70.9318,-34.3738],[-70.9318,-34.3739],[-70.932,-34.3739],[-70.9321,-34.3739],[-70.9323,-34.3741],[-70.9326,-34.3742],[-70.9327,-34.3743],[-70.933,-34.3745],[-70.9331,-34.3746],[-70.9333,-34.3747],[-70.9335,-34.3749],[-70.9337,-34.375],[-70.9338,-34.3751],[-70.9339,-34.3752],[-70.934,-34.3753],[-70.9341,-34.3754],[-70.9344,-34.3758],[-70.9345,-34.3759],[-70.9347,-34.376],[-70.9347,-34.3761],[-70.9348,-34.3762],[-70.935,-34.3764],[-70.9351,-34.3764],[-70.9352,-34.3764],[-70.9353,-34.3764],[-70.9356,-34.3764],[-70.9359,-34.3764],[-70.9365,-34.3763],[-70.9367,-34.3763],[-70.9368,-34.3763],[-70.937,-34.3763],[-70.9373,-34.3764],[-70.9375,-34.3765],[-70.9376,-34.3765],[-70.9379,-34.3765],[-70.938,-34.3766],[-70.9383,-34.3769],[-70.9384,-34.3771],[-70.9388,-34.378],[-70.939,-34.3784],[-70.9392,-34.3787],[-70.9394,-34.3789],[-70.9395,-34.3792],[-70.9398,-34.3795],[-70.9402,-34.3797],[-70.941,-34.3801],[-70.9417,-34.3803],[-70.9425,-34.3806],[-70.9434,-34.3814],[-70.9443,-34.3818],[-70.9466,-34.383],[-70.9497,-34.3845],[-70.9527,-34.3858],[-70.958,-34.3882],[-70.9583,-34.3883],[-70.9587,-34.3885],[-70.959,-34.3885]]]}}